{
  "type": "FeatureCollection",
  "features": [
    {
      "type": "Feature",
      "properties": {
        "name": "AOI 10k acres - CA_CarrHirzDeltaFires_2_2019",
        "target_acres": 10000.0,
        "side_m": 6361.49
      },
      "geometry": {
        "type": "Polygon",
        "coordinates": [
          [
            [
              -121.72106101,
              40.5393564
            ],
            [
              -121.64593899,
              40.5393564
            ],
            [
              -121.64593899,
              40.5966436
            ],
            [
              -121.72106101,
              40.5966436
            ],
            [
              -121.72106101,
              40.5393564
            ]
          ]
        ]
      }
    }
  ]
}