{
"type": "FeatureCollection",
"name": "plots",
"features": [
{ "type": "Feature", "properties": { "plotID": "SJER_001", "site": "SJER", "plotType": "distributed", "swept": false, "frdens": null, "pdens": null, "n_live_core": 0, "n_live_plot": 0, "n_stems_total": 1 }, "geometry": { "type": "Polygon", "coordinates": [ [ [ -119.7203492, 37.1065094 ], [ -119.7201244, 37.1065145 ], [ -119.7201308, 37.1066946 ], [ -119.7203557, 37.1066894 ], [ -119.7203492, 37.1065094 ] ] ] } },
{ "type": "Feature", "properties": { "plotID": "SJER_002", "site": "SJER", "plotType": "distributed", "swept": false, "frdens": null, "pdens": null, "n_live_core": 1, "n_live_plot": 1, "n_stems_total": 2 }, "geometry": { "type": "Polygon", "coordinates": [ [ [ -119.7434331, 37.0827204 ], [ -119.7432083, 37.0827256 ], [ -119.7432148, 37.0829056 ], [ -119.7434396, 37.0829004 ], [ -119.7434331, 37.0827204 ] ] ] } },
{ "type": "Feature", "properties": { "plotID": "SJER_003", "site": "SJER", "plotType": "distributed", "swept": false, "frdens": null, "pdens": null, "n_live_core": 3, "n_live_plot": 5, "n_stems_total": 5 }, "geometry": { "type": "Polygon", "coordinates": [ [ [ -119.7304882, 37.1165394 ], [ -119.7302634, 37.1165445 ], [ -119.7302698, 37.1167246 ], [ -119.7304947, 37.1167194 ], [ -119.7304882, 37.1165394 ] ] ] } },
{ "type": "Feature", "properties": { "plotID": "SJER_004", "site": "SJER", "plotType": "distributed", "swept": false, "frdens": null, "pdens": null, "n_live_core": 2, "n_live_plot": 2, "n_stems_total": 2 }, "geometry": { "type": "Polygon", "coordinates": [ [ [ -119.7464142, 37.1088794 ], [ -119.7461893, 37.1088846 ], [ -119.7461959, 37.1090647 ], [ -119.7464207, 37.1090595 ], [ -119.7464142, 37.1088794 ] ] ] } },
{ "type": "Feature", "properties": { "plotID": "SJER_005", "site": "SJER", "plotType": "distributed", "swept": false, "frdens": null, "pdens": null, "n_live_core": 0, "n_live_plot": 0, "n_stems_total": 16 }, "geometry": { "type": "Polygon", "coordinates": [ [ [ -119.7486262, 37.1234074 ], [ -119.7484013, 37.1234126 ], [ -119.7484078, 37.1235927 ], [ -119.7486327, 37.1235875 ], [ -119.7486262, 37.1234074 ] ] ] } },
{ "type": "Feature", "properties": { "plotID": "SJER_006", "site": "SJER", "plotType": "distributed", "swept": false, "frdens": null, "pdens": null, "n_live_core": 0, "n_live_plot": 0, "n_stems_total": 2 }, "geometry": { "type": "Polygon", "coordinates": [ [ [ -119.7492241, 37.1028314 ], [ -119.7489993, 37.1028366 ], [ -119.7490058, 37.1030166 ], [ -119.7492306, 37.1030114 ], [ -119.7492241, 37.1028314 ] ] ] } },
{ "type": "Feature", "properties": { "plotID": "SJER_007", "site": "SJER", "plotType": "distributed", "swept": false, "frdens": null, "pdens": null, "n_live_core": 1, "n_live_plot": 1, "n_stems_total": 4 }, "geometry": { "type": "Polygon", "coordinates": [ [ [ -119.7533562, 37.1138343 ], [ -119.7531313, 37.1138395 ], [ -119.7531379, 37.1140196 ], [ -119.7533627, 37.1140144 ], [ -119.7533562, 37.1138343 ] ] ] } },
{ "type": "Feature", "properties": { "plotID": "SJER_008", "site": "SJER", "plotType": "distributed", "swept": true, "frdens": 8.36, "pdens": 20.09, "n_live_core": 6, "n_live_plot": 7, "n_stems_total": 10 }, "geometry": { "type": "Polygon", "coordinates": [ [ [ -119.7176452, 37.1073654 ], [ -119.7174204, 37.1073706 ], [ -119.7174268, 37.1075506 ], [ -119.7176517, 37.1075455 ], [ -119.7176452, 37.1073654 ] ] ] } },
{ "type": "Feature", "properties": { "plotID": "SJER_009", "site": "SJER", "plotType": "distributed", "swept": false, "frdens": null, "pdens": null, "n_live_core": 0, "n_live_plot": 0, "n_stems_total": 2 }, "geometry": { "type": "Polygon", "coordinates": [ [ [ -119.7386012, 37.1174393 ], [ -119.7383763, 37.1174445 ], [ -119.7383828, 37.1176246 ], [ -119.7386077, 37.1176194 ], [ -119.7386012, 37.1174393 ] ] ] } },
{ "type": "Feature", "properties": { "plotID": "SJER_010", "site": "SJER", "plotType": "distributed", "swept": false, "frdens": null, "pdens": null, "n_live_core": 4, "n_live_plot": 5, "n_stems_total": 5 }, "geometry": { "type": "Polygon", "coordinates": [ [ [ -119.7495042, 37.1285423 ], [ -119.7492793, 37.1285476 ], [ -119.7492858, 37.1287276 ], [ -119.7495107, 37.1287224 ], [ -119.7495042, 37.1285423 ] ] ] } },
{ "type": "Feature", "properties": { "plotID": "SJER_012", "site": "SJER", "plotType": "distributed", "swept": false, "frdens": null, "pdens": null, "n_live_core": 0, "n_live_plot": 0, "n_stems_total": 2 }, "geometry": { "type": "Polygon", "coordinates": [ [ [ -119.7171551, 37.0835874 ], [ -119.7169303, 37.0835925 ], [ -119.7169368, 37.0837726 ], [ -119.7171616, 37.0837675 ], [ -119.7171551, 37.0835874 ] ] ] } },
{ "type": "Feature", "properties": { "plotID": "SJER_014", "site": "SJER", "plotType": "distributed", "swept": false, "frdens": null, "pdens": null, "n_live_core": 0, "n_live_plot": 0, "n_stems_total": 1 }, "geometry": { "type": "Polygon", "coordinates": [ [ [ -119.7203751, 37.0786513 ], [ -119.7201504, 37.0786565 ], [ -119.7201568, 37.0788366 ], [ -119.7203816, 37.0788314 ], [ -119.7203751, 37.0786513 ] ] ] } },
{ "type": "Feature", "properties": { "plotID": "SJER_015", "site": "SJER", "plotType": "distributed", "swept": false, "frdens": null, "pdens": null, "n_live_core": 1, "n_live_plot": 1, "n_stems_total": 3 }, "geometry": { "type": "Polygon", "coordinates": [ [ [ -119.7204631, 37.0818863 ], [ -119.7202384, 37.0818915 ], [ -119.7202448, 37.0820716 ], [ -119.7204696, 37.0820664 ], [ -119.7204631, 37.0818863 ] ] ] } },
{ "type": "Feature", "properties": { "plotID": "SJER_016", "site": "SJER", "plotType": "distributed", "swept": false, "frdens": null, "pdens": null, "n_live_core": 0, "n_live_plot": 1, "n_stems_total": 2 }, "geometry": { "type": "Polygon", "coordinates": [ [ [ -119.7162462, 37.0771264 ], [ -119.7160214, 37.0771315 ], [ -119.7160279, 37.0773116 ], [ -119.7162526, 37.0773065 ], [ -119.7162462, 37.0771264 ] ] ] } },
{ "type": "Feature", "properties": { "plotID": "SJER_019", "site": "SJER", "plotType": "distributed", "swept": false, "frdens": null, "pdens": null, "n_live_core": 0, "n_live_plot": 0, "n_stems_total": 0 }, "geometry": { "type": "Polygon", "coordinates": [ [ [ -119.7219602, 37.1043044 ], [ -119.7217354, 37.1043095 ], [ -119.7217418, 37.1044896 ], [ -119.7219666, 37.1044845 ], [ -119.7219602, 37.1043044 ] ] ] } },
{ "type": "Feature", "properties": { "plotID": "SJER_020", "site": "SJER", "plotType": "distributed", "swept": false, "frdens": null, "pdens": null, "n_live_core": 0, "n_live_plot": 0, "n_stems_total": 0 }, "geometry": { "type": "Polygon", "coordinates": [ [ [ -119.7532032, 37.1270624 ], [ -119.7529783, 37.1270676 ], [ -119.7529848, 37.1272477 ], [ -119.7532097, 37.1272424 ], [ -119.7532032, 37.1270624 ] ] ] } },
{ "type": "Feature", "properties": { "plotID": "SJER_021", "site": "SJER", "plotType": "distributed", "swept": false, "frdens": null, "pdens": null, "n_live_core": 0, "n_live_plot": 0, "n_stems_total": 30 }, "geometry": { "type": "Polygon", "coordinates": [ [ [ -119.7508932, 37.1106504 ], [ -119.7506683, 37.1106556 ], [ -119.7506748, 37.1108357 ], [ -119.7508997, 37.1108305 ], [ -119.7508932, 37.1106504 ] ] ] } },
{ "type": "Feature", "properties": { "plotID": "SJER_022", "site": "SJER", "plotType": "distributed", "swept": false, "frdens": null, "pdens": null, "n_live_core": 2, "n_live_plot": 2, "n_stems_total": 3 }, "geometry": { "type": "Polygon", "coordinates": [ [ [ -119.7170431, 37.0800834 ], [ -119.7168184, 37.0800885 ], [ -119.7168248, 37.0802686 ], [ -119.7170496, 37.0802635 ], [ -119.7170431, 37.0800834 ] ] ] } },
{ "type": "Feature", "properties": { "plotID": "SJER_025", "site": "SJER", "plotType": "distributed", "swept": false, "frdens": null, "pdens": null, "n_live_core": 1, "n_live_plot": 1, "n_stems_total": 2 }, "geometry": { "type": "Polygon", "coordinates": [ [ [ -119.7599512, 37.1271733 ], [ -119.7597263, 37.1271786 ], [ -119.7597328, 37.1273586 ], [ -119.7599577, 37.1273534 ], [ -119.7599512, 37.1271733 ] ] ] } },
{ "type": "Feature", "properties": { "plotID": "SJER_026", "site": "SJER", "plotType": "distributed", "swept": false, "frdens": null, "pdens": null, "n_live_core": 0, "n_live_plot": 0, "n_stems_total": 32 }, "geometry": { "type": "Polygon", "coordinates": [ [ [ -119.7292772, 37.1011424 ], [ -119.7290524, 37.1011475 ], [ -119.7290588, 37.1013276 ], [ -119.7292837, 37.1013224 ], [ -119.7292772, 37.1011424 ] ] ] } },
{ "type": "Feature", "properties": { "plotID": "SJER_045", "site": "SJER", "plotType": "tower", "swept": false, "frdens": null, "pdens": null, "n_live_core": 2, "n_live_plot": 3, "n_stems_total": 11 }, "geometry": { "type": "Polygon", "coordinates": [ [ [ -119.7318333, 37.1126417 ], [ -119.7313836, 37.1126521 ], [ -119.7313966, 37.1130123 ], [ -119.7318463, 37.1130019 ], [ -119.7318333, 37.1126417 ] ] ] } },
{ "type": "Feature", "properties": { "plotID": "SJER_046", "site": "SJER", "plotType": "tower", "swept": true, "frdens": 9.73, "pdens": 20.41, "n_live_core": 6, "n_live_plot": 6, "n_stems_total": 10 }, "geometry": { "type": "Polygon", "coordinates": [ [ [ -119.7283864, 37.1110907 ], [ -119.7279367, 37.1111011 ], [ -119.7279496, 37.1114612 ], [ -119.7283993, 37.1114509 ], [ -119.7283864, 37.1110907 ] ] ] } },
{ "type": "Feature", "properties": { "plotID": "SJER_047", "site": "SJER", "plotType": "tower", "swept": true, "frdens": 13.22, "pdens": 21.44, "n_live_core": 6, "n_live_plot": 6, "n_stems_total": 8 }, "geometry": { "type": "Polygon", "coordinates": [ [ [ -119.7347823, 37.1014728 ], [ -119.7343327, 37.1014831 ], [ -119.7343456, 37.1018433 ], [ -119.7347953, 37.1018329 ], [ -119.7347823, 37.1014728 ] ] ] } },
{ "type": "Feature", "properties": { "plotID": "SJER_048", "site": "SJER", "plotType": "tower", "swept": false, "frdens": null, "pdens": null, "n_live_core": 1, "n_live_plot": 1, "n_stems_total": 9 }, "geometry": { "type": "Polygon", "coordinates": [ [ [ -119.7354364, 37.1098257 ], [ -119.7349867, 37.1098361 ], [ -119.7349997, 37.1101962 ], [ -119.7354494, 37.1101859 ], [ -119.7354364, 37.1098257 ] ] ] } },
{ "type": "Feature", "properties": { "plotID": "SJER_049", "site": "SJER", "plotType": "tower", "swept": false, "frdens": null, "pdens": null, "n_live_core": 5, "n_live_plot": 5, "n_stems_total": 7 }, "geometry": { "type": "Polygon", "coordinates": [ [ [ -119.7291814, 37.1140628 ], [ -119.7287317, 37.1140731 ], [ -119.7287446, 37.1144333 ], [ -119.7291943, 37.1144229 ], [ -119.7291814, 37.1140628 ] ] ] } },
{ "type": "Feature", "properties": { "plotID": "SJER_050", "site": "SJER", "plotType": "tower", "swept": true, "frdens": 10.45, "pdens": 17.51, "n_live_core": 22, "n_live_plot": 22, "n_stems_total": 22 }, "geometry": { "type": "Polygon", "coordinates": [ [ [ -119.7395733, 37.1121677 ], [ -119.7391236, 37.1121781 ], [ -119.7391366, 37.1125383 ], [ -119.7395863, 37.1125279 ], [ -119.7395733, 37.1121677 ] ] ] } },
{ "type": "Feature", "properties": { "plotID": "SJER_051", "site": "SJER", "plotType": "tower", "swept": true, "frdens": 6.44, "pdens": 13.2, "n_live_core": 8, "n_live_plot": 16, "n_stems_total": 20 }, "geometry": { "type": "Polygon", "coordinates": [ [ [ -119.7415964, 37.1121497 ], [ -119.7411467, 37.1121601 ], [ -119.7411596, 37.1125203 ], [ -119.7416093, 37.1125099 ], [ -119.7415964, 37.1121497 ] ] ] } },
{ "type": "Feature", "properties": { "plotID": "SJER_052", "site": "SJER", "plotType": "tower", "swept": true, "frdens": 9.51, "pdens": 15.66, "n_live_core": 8, "n_live_plot": 8, "n_stems_total": 8 }, "geometry": { "type": "Polygon", "coordinates": [ [ [ -119.7239303, 37.1092868 ], [ -119.7234807, 37.1092971 ], [ -119.7234936, 37.1096573 ], [ -119.7239433, 37.1096469 ], [ -119.7239303, 37.1092868 ] ] ] } },
{ "type": "Feature", "properties": { "plotID": "SJER_053", "site": "SJER", "plotType": "tower", "swept": true, "frdens": 6.97, "pdens": 9.85, "n_live_core": 9, "n_live_plot": 10, "n_stems_total": 12 }, "geometry": { "type": "Polygon", "coordinates": [ [ [ -119.7367984, 37.1106118 ], [ -119.7363487, 37.1106221 ], [ -119.7363616, 37.1109823 ], [ -119.7368113, 37.1109719 ], [ -119.7367984, 37.1106118 ] ] ] } },
{ "type": "Feature", "properties": { "plotID": "SJER_054", "site": "SJER", "plotType": "tower", "swept": true, "frdens": 4.24, "pdens": 6.57, "n_live_core": 6, "n_live_plot": 6, "n_stems_total": 9 }, "geometry": { "type": "Polygon", "coordinates": [ [ [ -119.7329553, 37.1161127 ], [ -119.7325056, 37.1161231 ], [ -119.7325186, 37.1164833 ], [ -119.7329683, 37.1164729 ], [ -119.7329553, 37.1161127 ] ] ] } },
{ "type": "Feature", "properties": { "plotID": "SJER_055", "site": "SJER", "plotType": "tower", "swept": false, "frdens": null, "pdens": null, "n_live_core": 0, "n_live_plot": 0, "n_stems_total": 6 }, "geometry": { "type": "Polygon", "coordinates": [ [ [ -119.7282044, 37.1156837 ], [ -119.7277547, 37.1156941 ], [ -119.7277676, 37.1160542 ], [ -119.7282173, 37.1160439 ], [ -119.7282044, 37.1156837 ] ] ] } },
{ "type": "Feature", "properties": { "plotID": "SJER_056", "site": "SJER", "plotType": "tower", "swept": false, "frdens": null, "pdens": null, "n_live_core": 0, "n_live_plot": 0, "n_stems_total": 1 }, "geometry": { "type": "Polygon", "coordinates": [ [ [ -119.7359894, 37.1160468 ], [ -119.7355396, 37.1160572 ], [ -119.7355526, 37.1164173 ], [ -119.7360023, 37.1164069 ], [ -119.7359894, 37.1160468 ] ] ] } },
{ "type": "Feature", "properties": { "plotID": "SJER_057", "site": "SJER", "plotType": "tower", "swept": false, "frdens": null, "pdens": null, "n_live_core": 0, "n_live_plot": 0, "n_stems_total": 14 }, "geometry": { "type": "Polygon", "coordinates": [ [ [ -119.7281023, 37.1124277 ], [ -119.7276526, 37.1124381 ], [ -119.7276656, 37.1127982 ], [ -119.7281153, 37.1127879 ], [ -119.7281023, 37.1124277 ] ] ] } },
{ "type": "Feature", "properties": { "plotID": "SJER_058", "site": "SJER", "plotType": "tower", "swept": false, "frdens": null, "pdens": null, "n_live_core": 1, "n_live_plot": 1, "n_stems_total": 7 }, "geometry": { "type": "Polygon", "coordinates": [ [ [ -119.7359123, 37.1041457 ], [ -119.7354627, 37.1041561 ], [ -119.7354756, 37.1045162 ], [ -119.7359253, 37.1045059 ], [ -119.7359123, 37.1041457 ] ] ] } },
{ "type": "Feature", "properties": { "plotID": "SJER_059", "site": "SJER", "plotType": "tower", "swept": false, "frdens": null, "pdens": null, "n_live_core": 2, "n_live_plot": 2, "n_stems_total": 4 }, "geometry": { "type": "Polygon", "coordinates": [ [ [ -119.7322144, 37.1045047 ], [ -119.7317647, 37.1045151 ], [ -119.7317776, 37.1048752 ], [ -119.7322273, 37.1048649 ], [ -119.7322144, 37.1045047 ] ] ] } },
{ "type": "Feature", "properties": { "plotID": "SJER_060", "site": "SJER", "plotType": "tower", "swept": false, "frdens": null, "pdens": null, "n_live_core": 0, "n_live_plot": 0, "n_stems_total": 1 }, "geometry": { "type": "Polygon", "coordinates": [ [ [ -119.7335554, 37.1139537 ], [ -119.7331057, 37.1139641 ], [ -119.7331187, 37.1143243 ], [ -119.7335684, 37.1143139 ], [ -119.7335554, 37.1139537 ] ] ] } },
{ "type": "Feature", "properties": { "plotID": "SJER_061", "site": "SJER", "plotType": "tower", "swept": false, "frdens": null, "pdens": null, "n_live_core": 0, "n_live_plot": 0, "n_stems_total": 1 }, "geometry": { "type": "Polygon", "coordinates": [ [ [ -119.7396083, 37.1135407 ], [ -119.7391586, 37.1135511 ], [ -119.7391716, 37.1139112 ], [ -119.7396213, 37.1139008 ], [ -119.7396083, 37.1135407 ] ] ] } },
{ "type": "Feature", "properties": { "plotID": "SJER_062", "site": "SJER", "plotType": "tower", "swept": false, "frdens": null, "pdens": null, "n_live_core": 0, "n_live_plot": 0, "n_stems_total": 2 }, "geometry": { "type": "Polygon", "coordinates": [ [ [ -119.7348473, 37.1123008 ], [ -119.7343976, 37.1123111 ], [ -119.7344106, 37.1126713 ], [ -119.7348603, 37.1126609 ], [ -119.7348473, 37.1123008 ] ] ] } },
{ "type": "Feature", "properties": { "plotID": "SJER_063", "site": "SJER", "plotType": "tower", "swept": false, "frdens": null, "pdens": null, "n_live_core": 1, "n_live_plot": 1, "n_stems_total": 8 }, "geometry": { "type": "Polygon", "coordinates": [ [ [ -119.7391613, 37.1105677 ], [ -119.7387116, 37.1105781 ], [ -119.7387246, 37.1109382 ], [ -119.7391743, 37.1109279 ], [ -119.7391613, 37.1105677 ] ] ] } },
{ "type": "Feature", "properties": { "plotID": "SJER_064", "site": "SJER", "plotType": "tower", "swept": false, "frdens": null, "pdens": null, "n_live_core": 0, "n_live_plot": 0, "n_stems_total": 2 }, "geometry": { "type": "Polygon", "coordinates": [ [ [ -119.7266244, 37.1089598 ], [ -119.7261747, 37.1089701 ], [ -119.7261876, 37.1093303 ], [ -119.7266373, 37.1093199 ], [ -119.7266244, 37.1089598 ] ] ] } },
{ "type": "Feature", "properties": { "plotID": "SOAP_001", "site": "SOAP", "plotType": "distributed", "swept": true, "frdens": 7.78, "pdens": 14.91, "n_live_core": 10, "n_live_plot": 10, "n_stems_total": 18 }, "geometry": { "type": "Polygon", "coordinates": [ [ [ -119.2736386, 37.0378058 ], [ -119.2734139, 37.0378101 ], [ -119.2734193, 37.0379902 ], [ -119.273644, 37.0379859 ], [ -119.2736386, 37.0378058 ] ] ] } },
{ "type": "Feature", "properties": { "plotID": "SOAP_002", "site": "SOAP", "plotType": "distributed", "swept": true, "frdens": 12.82, "pdens": 21.5, "n_live_core": 10, "n_live_plot": 12, "n_stems_total": 19 }, "geometry": { "type": "Polygon", "coordinates": [ [ [ -119.2818727, 37.0306107 ], [ -119.281648, 37.0306151 ], [ -119.2816534, 37.0307952 ], [ -119.2818781, 37.0307909 ], [ -119.2818727, 37.0306107 ] ] ] } },
{ "type": "Feature", "properties": { "plotID": "SOAP_003", "site": "SOAP", "plotType": "distributed", "swept": true, "frdens": 13.73, "pdens": 18.07, "n_live_core": 5, "n_live_plot": 6, "n_stems_total": 18 }, "geometry": { "type": "Polygon", "coordinates": [ [ [ -119.2509447, 37.0338908 ], [ -119.25072, 37.0338951 ], [ -119.2507253, 37.0340752 ], [ -119.25095, 37.034071 ], [ -119.2509447, 37.0338908 ] ] ] } },
{ "type": "Feature", "properties": { "plotID": "SOAP_004", "site": "SOAP", "plotType": "distributed", "swept": true, "frdens": 11.09, "pdens": 20.84, "n_live_core": 12, "n_live_plot": 13, "n_stems_total": 23 }, "geometry": { "type": "Polygon", "coordinates": [ [ [ -119.2695927, 37.0373338 ], [ -119.269368, 37.0373381 ], [ -119.2693734, 37.0375182 ], [ -119.2695981, 37.0375139 ], [ -119.2695927, 37.0373338 ] ] ] } },
{ "type": "Feature", "properties": { "plotID": "SOAP_006", "site": "SOAP", "plotType": "distributed", "swept": false, "frdens": null, "pdens": null, "n_live_core": 1, "n_live_plot": 1, "n_stems_total": 6 }, "geometry": { "type": "Polygon", "coordinates": [ [ [ -119.2816757, 37.0249638 ], [ -119.281451, 37.0249681 ], [ -119.2814564, 37.0251482 ], [ -119.2816811, 37.0251439 ], [ -119.2816757, 37.0249638 ] ] ] } },
{ "type": "Feature", "properties": { "plotID": "SOAP_007", "site": "SOAP", "plotType": "distributed", "swept": false, "frdens": null, "pdens": null, "n_live_core": 3, "n_live_plot": 4, "n_stems_total": 13 }, "geometry": { "type": "Polygon", "coordinates": [ [ [ -119.2501067, 37.0285048 ], [ -119.249882, 37.0285091 ], [ -119.2498873, 37.0286892 ], [ -119.250112, 37.028685 ], [ -119.2501067, 37.0285048 ] ] ] } },
{ "type": "Feature", "properties": { "plotID": "SOAP_008", "site": "SOAP", "plotType": "distributed", "swept": true, "frdens": 8.72, "pdens": 13.88, "n_live_core": 6, "n_live_plot": 7, "n_stems_total": 14 }, "geometry": { "type": "Polygon", "coordinates": [ [ [ -119.2763967, 37.0291078 ], [ -119.276172, 37.0291121 ], [ -119.2761774, 37.0292923 ], [ -119.2764021, 37.0292879 ], [ -119.2763967, 37.0291078 ] ] ] } },
{ "type": "Feature", "properties": { "plotID": "SOAP_009", "site": "SOAP", "plotType": "distributed", "swept": true, "frdens": 7.98, "pdens": 10.06, "n_live_core": 6, "n_live_plot": 7, "n_stems_total": 18 }, "geometry": { "type": "Polygon", "coordinates": [ [ [ -119.2567867, 37.0378428 ], [ -119.256562, 37.0378471 ], [ -119.2565673, 37.0380272 ], [ -119.256792, 37.0380229 ], [ -119.2567867, 37.0378428 ] ] ] } },
{ "type": "Feature", "properties": { "plotID": "SOAP_010", "site": "SOAP", "plotType": "distributed", "swept": false, "frdens": null, "pdens": null, "n_live_core": 0, "n_live_plot": 0, "n_stems_total": 5 }, "geometry": { "type": "Polygon", "coordinates": [ [ [ -119.2739116, 37.0350978 ], [ -119.2736869, 37.0351021 ], [ -119.2736923, 37.0352823 ], [ -119.273917, 37.035278 ], [ -119.2739116, 37.0350978 ] ] ] } },
{ "type": "Feature", "properties": { "plotID": "SOAP_012", "site": "SOAP", "plotType": "distributed", "swept": false, "frdens": null, "pdens": null, "n_live_core": 4, "n_live_plot": 4, "n_stems_total": 9 }, "geometry": { "type": "Polygon", "coordinates": [ [ [ -119.2767947, 37.0304227 ], [ -119.27657, 37.030427 ], [ -119.2765754, 37.0306072 ], [ -119.2768001, 37.0306029 ], [ -119.2767947, 37.0304227 ] ] ] } },
{ "type": "Feature", "properties": { "plotID": "SOAP_013", "site": "SOAP", "plotType": "distributed", "swept": true, "frdens": 13.69, "pdens": 21.99, "n_live_core": 6, "n_live_plot": 7, "n_stems_total": 9 }, "geometry": { "type": "Polygon", "coordinates": [ [ [ -119.2818276, 37.0295068 ], [ -119.2816029, 37.0295111 ], [ -119.2816083, 37.0296913 ], [ -119.281833, 37.0296869 ], [ -119.2818276, 37.0295068 ] ] ] } },
{ "type": "Feature", "properties": { "plotID": "SOAP_015", "site": "SOAP", "plotType": "distributed", "swept": true, "frdens": 12.59, "pdens": 20.86, "n_live_core": 19, "n_live_plot": 19, "n_stems_total": 39 }, "geometry": { "type": "Polygon", "coordinates": [ [ [ -119.2517677, 37.0381718 ], [ -119.251543, 37.0381761 ], [ -119.2515483, 37.0383562 ], [ -119.251773, 37.0383519 ], [ -119.2517677, 37.0381718 ] ] ] } },
{ "type": "Feature", "properties": { "plotID": "SOAP_016", "site": "SOAP", "plotType": "distributed", "swept": false, "frdens": null, "pdens": null, "n_live_core": 0, "n_live_plot": 0, "n_stems_total": 8 }, "geometry": { "type": "Polygon", "coordinates": [ [ [ -119.2531277, 37.0284318 ], [ -119.252903, 37.0284361 ], [ -119.2529083, 37.0286162 ], [ -119.253133, 37.0286119 ], [ -119.2531277, 37.0284318 ] ] ] } },
{ "type": "Feature", "properties": { "plotID": "SOAP_017", "site": "SOAP", "plotType": "distributed", "swept": true, "frdens": 14.66, "pdens": 20.27, "n_live_core": 5, "n_live_plot": 6, "n_stems_total": 21 }, "geometry": { "type": "Polygon", "coordinates": [ [ [ -119.2424267, 37.0308088 ], [ -119.242202, 37.030813 ], [ -119.2422073, 37.0309932 ], [ -119.242432, 37.0309889 ], [ -119.2424267, 37.0308088 ] ] ] } },
{ "type": "Feature", "properties": { "plotID": "SOAP_018", "site": "SOAP", "plotType": "distributed", "swept": false, "frdens": null, "pdens": null, "n_live_core": 1, "n_live_plot": 1, "n_stems_total": 4 }, "geometry": { "type": "Polygon", "coordinates": [ [ [ -119.2437147, 37.0288928 ], [ -119.24349, 37.028897 ], [ -119.2434953, 37.0290772 ], [ -119.24372, 37.0290729 ], [ -119.2437147, 37.0288928 ] ] ] } },
{ "type": "Feature", "properties": { "plotID": "SOAP_019", "site": "SOAP", "plotType": "distributed", "swept": false, "frdens": null, "pdens": null, "n_live_core": 0, "n_live_plot": 1, "n_stems_total": 8 }, "geometry": { "type": "Polygon", "coordinates": [ [ [ -119.2458017, 37.0307518 ], [ -119.245577, 37.030756 ], [ -119.2455823, 37.0309362 ], [ -119.245807, 37.0309319 ], [ -119.2458017, 37.0307518 ] ] ] } },
{ "type": "Feature", "properties": { "plotID": "SOAP_020", "site": "SOAP", "plotType": "distributed", "swept": true, "frdens": 13.56, "pdens": 17.91, "n_live_core": 10, "n_live_plot": 10, "n_stems_total": 16 }, "geometry": { "type": "Polygon", "coordinates": [ [ [ -119.2570797, 37.0364928 ], [ -119.256855, 37.0364971 ], [ -119.2568603, 37.0366772 ], [ -119.257085, 37.036673 ], [ -119.2570797, 37.0364928 ] ] ] } },
{ "type": "Feature", "properties": { "plotID": "SOAP_021", "site": "SOAP", "plotType": "distributed", "swept": true, "frdens": 12.21, "pdens": 21.62, "n_live_core": 8, "n_live_plot": 10, "n_stems_total": 11 }, "geometry": { "type": "Polygon", "coordinates": [ [ [ -119.2762817, 37.0361347 ], [ -119.276057, 37.036139 ], [ -119.2760623, 37.0363192 ], [ -119.276287, 37.0363149 ], [ -119.2762817, 37.0361347 ] ] ] } },
{ "type": "Feature", "properties": { "plotID": "SOAP_031", "site": "SOAP", "plotType": "tower", "swept": true, "frdens": 10.46, "pdens": 15.84, "n_live_core": 34, "n_live_plot": 35, "n_stems_total": 61 }, "geometry": { "type": "Polygon", "coordinates": [ [ [ -119.2524463, 37.0351576 ], [ -119.2519969, 37.0351661 ], [ -119.2520076, 37.0355264 ], [ -119.252457, 37.0355179 ], [ -119.2524463, 37.0351576 ] ] ] } },
{ "type": "Feature", "properties": { "plotID": "SOAP_043", "site": "SOAP", "plotType": "tower", "swept": false, "frdens": null, "pdens": null, "n_live_core": 4, "n_live_plot": 4, "n_stems_total": 81 }, "geometry": { "type": "Polygon", "coordinates": [ [ [ -119.2689353, 37.0342465 ], [ -119.2684859, 37.0342551 ], [ -119.2684967, 37.0346154 ], [ -119.2689461, 37.0346068 ], [ -119.2689353, 37.0342465 ] ] ] } },
{ "type": "Feature", "properties": { "plotID": "SOAP_044", "site": "SOAP", "plotType": "tower", "swept": false, "frdens": null, "pdens": null, "n_live_core": 0, "n_live_plot": 0, "n_stems_total": 23 }, "geometry": { "type": "Polygon", "coordinates": [ [ [ -119.2695323, 37.0312675 ], [ -119.2690829, 37.0312761 ], [ -119.2690936, 37.0316364 ], [ -119.269543, 37.0316278 ], [ -119.2695323, 37.0312675 ] ] ] } },
{ "type": "Feature", "properties": { "plotID": "SOAP_045", "site": "SOAP", "plotType": "tower", "swept": false, "frdens": null, "pdens": null, "n_live_core": 1, "n_live_plot": 1, "n_stems_total": 44 }, "geometry": { "type": "Polygon", "coordinates": [ [ [ -119.2577673, 37.0328446 ], [ -119.2573179, 37.0328531 ], [ -119.2573286, 37.0332134 ], [ -119.257778, 37.0332049 ], [ -119.2577673, 37.0328446 ] ] ] } },
{ "type": "Feature", "properties": { "plotID": "SOAP_046", "site": "SOAP", "plotType": "tower", "swept": true, "frdens": 15.97, "pdens": 20.41, "n_live_core": 16, "n_live_plot": 16, "n_stems_total": 46 }, "geometry": { "type": "Polygon", "coordinates": [ [ [ -119.2668533, 37.0321416 ], [ -119.2664039, 37.0321502 ], [ -119.2664146, 37.0325105 ], [ -119.266864, 37.0325019 ], [ -119.2668533, 37.0321416 ] ] ] } },
{ "type": "Feature", "properties": { "plotID": "SOAP_047", "site": "SOAP", "plotType": "tower", "swept": false, "frdens": null, "pdens": null, "n_live_core": 0, "n_live_plot": 0, "n_stems_total": 25 }, "geometry": { "type": "Polygon", "coordinates": [ [ [ -119.2578164, 37.0342196 ], [ -119.257367, 37.0342281 ], [ -119.2573776, 37.0345884 ], [ -119.2578271, 37.0345799 ], [ -119.2578164, 37.0342196 ] ] ] } },
{ "type": "Feature", "properties": { "plotID": "SOAP_048", "site": "SOAP", "plotType": "tower", "swept": true, "frdens": 12.99, "pdens": 21.47, "n_live_core": 31, "n_live_plot": 32, "n_stems_total": 84 }, "geometry": { "type": "Polygon", "coordinates": [ [ [ -119.2706453, 37.0350436 ], [ -119.2701959, 37.0350522 ], [ -119.2702066, 37.0354125 ], [ -119.2706561, 37.0354039 ], [ -119.2706453, 37.0350436 ] ] ] } },
{ "type": "Feature", "properties": { "plotID": "SOAP_049", "site": "SOAP", "plotType": "tower", "swept": true, "frdens": 11.84, "pdens": 16.56, "n_live_core": 8, "n_live_plot": 9, "n_stems_total": 51 }, "geometry": { "type": "Polygon", "coordinates": [ [ [ -119.2537784, 37.0348656 ], [ -119.253329, 37.0348741 ], [ -119.2533396, 37.0352344 ], [ -119.253789, 37.0352259 ], [ -119.2537784, 37.0348656 ] ] ] } },
{ "type": "Feature", "properties": { "plotID": "SOAP_050", "site": "SOAP", "plotType": "tower", "swept": true, "frdens": 12.13, "pdens": 20.42, "n_live_core": 27, "n_live_plot": 27, "n_stems_total": 48 }, "geometry": { "type": "Polygon", "coordinates": [ [ [ -119.2678673, 37.0329295 ], [ -119.2674179, 37.0329381 ], [ -119.2674287, 37.0332984 ], [ -119.2678781, 37.0332898 ], [ -119.2678673, 37.0329295 ] ] ] } },
{ "type": "Feature", "properties": { "plotID": "SOAP_051", "site": "SOAP", "plotType": "tower", "swept": false, "frdens": null, "pdens": null, "n_live_core": 1, "n_live_plot": 1, "n_stems_total": 16 }, "geometry": { "type": "Polygon", "coordinates": [ [ [ -119.2719334, 37.0328855 ], [ -119.271484, 37.0328941 ], [ -119.2714947, 37.0332544 ], [ -119.2719441, 37.0332458 ], [ -119.2719334, 37.0328855 ] ] ] } },
{ "type": "Feature", "properties": { "plotID": "SOAP_052", "site": "SOAP", "plotType": "tower", "swept": false, "frdens": null, "pdens": null, "n_live_core": 2, "n_live_plot": 2, "n_stems_total": 35 }, "geometry": { "type": "Polygon", "coordinates": [ [ [ -119.2702273, 37.0320645 ], [ -119.2697779, 37.0320731 ], [ -119.2697887, 37.0324334 ], [ -119.2702381, 37.0324248 ], [ -119.2702273, 37.0320645 ] ] ] } },
{ "type": "Feature", "properties": { "plotID": "SOAP_053", "site": "SOAP", "plotType": "tower", "swept": false, "frdens": null, "pdens": null, "n_live_core": 0, "n_live_plot": 0, "n_stems_total": 42 }, "geometry": { "type": "Polygon", "coordinates": [ [ [ -119.2560904, 37.0334425 ], [ -119.255641, 37.0334511 ], [ -119.2556517, 37.0338114 ], [ -119.2561011, 37.0338028 ], [ -119.2560904, 37.0334425 ] ] ] } },
{ "type": "Feature", "properties": { "plotID": "SOAP_054", "site": "SOAP", "plotType": "tower", "swept": false, "frdens": null, "pdens": null, "n_live_core": 0, "n_live_plot": 0, "n_stems_total": 65 }, "geometry": { "type": "Polygon", "coordinates": [ [ [ -119.2597984, 37.0330806 ], [ -119.2593489, 37.0330891 ], [ -119.2593596, 37.0334494 ], [ -119.259809, 37.0334409 ], [ -119.2597984, 37.0330806 ] ] ] } },
{ "type": "Feature", "properties": { "plotID": "SOAP_055", "site": "SOAP", "plotType": "tower", "swept": true, "frdens": 11.37, "pdens": 15.77, "n_live_core": 13, "n_live_plot": 13, "n_stems_total": 57 }, "geometry": { "type": "Polygon", "coordinates": [ [ [ -119.2655334, 37.0329736 ], [ -119.265084, 37.0329822 ], [ -119.2650947, 37.0333425 ], [ -119.2655441, 37.0333339 ], [ -119.2655334, 37.0329736 ] ] ] } },
{ "type": "Feature", "properties": { "plotID": "SOAP_056", "site": "SOAP", "plotType": "tower", "swept": false, "frdens": null, "pdens": null, "n_live_core": 2, "n_live_plot": 2, "n_stems_total": 71 }, "geometry": { "type": "Polygon", "coordinates": [ [ [ -119.2551224, 37.0342976 ], [ -119.254673, 37.0343061 ], [ -119.2546836, 37.0346664 ], [ -119.2551331, 37.0346579 ], [ -119.2551224, 37.0342976 ] ] ] } },
{ "type": "Feature", "properties": { "plotID": "SOAP_057", "site": "SOAP", "plotType": "tower", "swept": true, "frdens": 8.51, "pdens": 13.78, "n_live_core": 6, "n_live_plot": 6, "n_stems_total": 26 }, "geometry": { "type": "Polygon", "coordinates": [ [ [ -119.2729963, 37.0347466 ], [ -119.2725469, 37.0347552 ], [ -119.2725577, 37.0351155 ], [ -119.2730071, 37.0351069 ], [ -119.2729963, 37.0347466 ] ] ] } },
{ "type": "Feature", "properties": { "plotID": "SOAP_058", "site": "SOAP", "plotType": "tower", "swept": false, "frdens": null, "pdens": null, "n_live_core": 0, "n_live_plot": 0, "n_stems_total": 19 }, "geometry": { "type": "Polygon", "coordinates": [ [ [ -119.2641873, 37.0335446 ], [ -119.2637379, 37.0335531 ], [ -119.2637486, 37.0339134 ], [ -119.264198, 37.0339048 ], [ -119.2641873, 37.0335446 ] ] ] } },
{ "type": "Feature", "properties": { "plotID": "SOAP_059", "site": "SOAP", "plotType": "tower", "swept": false, "frdens": null, "pdens": null, "n_live_core": 0, "n_live_plot": 0, "n_stems_total": 26 }, "geometry": { "type": "Polygon", "coordinates": [ [ [ -119.2732843, 37.0333846 ], [ -119.2728349, 37.0333932 ], [ -119.2728456, 37.0337535 ], [ -119.273295, 37.0337449 ], [ -119.2732843, 37.0333846 ] ] ] } },
{ "type": "Feature", "properties": { "plotID": "SOAP_060", "site": "SOAP", "plotType": "tower", "swept": false, "frdens": null, "pdens": null, "n_live_core": 2, "n_live_plot": 2, "n_stems_total": 7 }, "geometry": { "type": "Polygon", "coordinates": [ [ [ -119.2705133, 37.0307126 ], [ -119.2700639, 37.0307212 ], [ -119.2700746, 37.0310815 ], [ -119.270524, 37.0310729 ], [ -119.2705133, 37.0307126 ] ] ] } },
{ "type": "Feature", "properties": { "plotID": "SOAP_061", "site": "SOAP", "plotType": "tower", "swept": false, "frdens": null, "pdens": null, "n_live_core": 0, "n_live_plot": 0, "n_stems_total": 34 }, "geometry": { "type": "Polygon", "coordinates": [ [ [ -119.2716263, 37.0339615 ], [ -119.2711769, 37.0339701 ], [ -119.2711876, 37.0343304 ], [ -119.271637, 37.0343218 ], [ -119.2716263, 37.0339615 ] ] ] } },
{ "type": "Feature", "properties": { "plotID": "TEAK_001", "site": "TEAK", "plotType": "distributed", "swept": true, "frdens": 8.86, "pdens": 14.39, "n_live_core": 9, "n_live_plot": 10, "n_stems_total": 13 }, "geometry": { "type": "Polygon", "coordinates": [ [ [ -119.0165799, 36.976575 ], [ -119.0163554, 36.9765788 ], [ -119.0163601, 36.976759 ], [ -119.0165847, 36.9767552 ], [ -119.0165799, 36.976575 ] ] ] } },
{ "type": "Feature", "properties": { "plotID": "TEAK_002", "site": "TEAK", "plotType": "distributed", "swept": true, "frdens": 13.79, "pdens": 23.43, "n_live_core": 13, "n_live_plot": 13, "n_stems_total": 21 }, "geometry": { "type": "Polygon", "coordinates": [ [ [ -119.0358029, 36.978362 ], [ -119.0355784, 36.9783659 ], [ -119.0355832, 36.978546 ], [ -119.0358077, 36.9785422 ], [ -119.0358029, 36.978362 ] ] ] } },
{ "type": "Feature", "properties": { "plotID": "TEAK_003", "site": "TEAK", "plotType": "distributed", "swept": true, "frdens": 11.68, "pdens": 17.52, "n_live_core": 16, "n_live_plot": 17, "n_stems_total": 20 }, "geometry": { "type": "Polygon", "coordinates": [ [ [ -119.010729, 37.01287 ], [ -119.0105043, 37.0128738 ], [ -119.0105091, 37.013054 ], [ -119.0107337, 37.0130502 ], [ -119.010729, 37.01287 ] ] ] } },
{ "type": "Feature", "properties": { "plotID": "TEAK_004", "site": "TEAK", "plotType": "distributed", "swept": false, "frdens": null, "pdens": null, "n_live_core": 0, "n_live_plot": 0, "n_stems_total": 0 }, "geometry": { "type": "Polygon", "coordinates": [ [ [ -119.0364139, 37.001595 ], [ -119.0361893, 37.0015988 ], [ -119.0361941, 37.001779 ], [ -119.0364187, 37.0017752 ], [ -119.0364139, 37.001595 ] ] ] } },
{ "type": "Feature", "properties": { "plotID": "TEAK_005", "site": "TEAK", "plotType": "distributed", "swept": false, "frdens": null, "pdens": null, "n_live_core": 4, "n_live_plot": 4, "n_stems_total": 5 }, "geometry": { "type": "Polygon", "coordinates": [ [ [ -118.988688, 37.058137 ], [ -118.9884632, 37.0581408 ], [ -118.9884679, 37.058321 ], [ -118.9886927, 37.0583172 ], [ -118.988688, 37.058137 ] ] ] } },
{ "type": "Feature", "properties": { "plotID": "TEAK_006", "site": "TEAK", "plotType": "distributed", "swept": true, "frdens": 14.98, "pdens": 21.52, "n_live_core": 9, "n_live_plot": 10, "n_stems_total": 11 }, "geometry": { "type": "Polygon", "coordinates": [ [ [ -119.0572559, 36.975546 ], [ -119.0570313, 36.9755499 ], [ -119.0570362, 36.97573 ], [ -119.0572607, 36.9757262 ], [ -119.0572559, 36.975546 ] ] ] } },
{ "type": "Feature", "properties": { "plotID": "TEAK_007", "site": "TEAK", "plotType": "distributed", "swept": true, "frdens": 12.61, "pdens": 18.35, "n_live_core": 8, "n_live_plot": 12, "n_stems_total": 19 }, "geometry": { "type": "Polygon", "coordinates": [ [ [ -119.0522139, 36.9997049 ], [ -119.0519893, 36.9997088 ], [ -119.0519941, 36.999889 ], [ -119.0522187, 36.9998851 ], [ -119.0522139, 36.9997049 ] ] ] } },
{ "type": "Feature", "properties": { "plotID": "TEAK_010", "site": "TEAK", "plotType": "distributed", "swept": false, "frdens": null, "pdens": null, "n_live_core": 3, "n_live_plot": 4, "n_stems_total": 13 }, "geometry": { "type": "Polygon", "coordinates": [ [ [ -119.0492059, 37.014342 ], [ -119.0489813, 37.0143459 ], [ -119.0489861, 37.0145261 ], [ -119.0492108, 37.0145222 ], [ -119.0492059, 37.014342 ] ] ] } },
{ "type": "Feature", "properties": { "plotID": "TEAK_011", "site": "TEAK", "plotType": "distributed", "swept": true, "frdens": 7.83, "pdens": 12.75, "n_live_core": 7, "n_live_plot": 8, "n_stems_total": 11 }, "geometry": { "type": "Polygon", "coordinates": [ [ [ -119.003096, 37.004061 ], [ -119.0028713, 37.0040648 ], [ -119.0028761, 37.004245 ], [ -119.0031007, 37.0042412 ], [ -119.003096, 37.004061 ] ] ] } },
{ "type": "Feature", "properties": { "plotID": "TEAK_012", "site": "TEAK", "plotType": "distributed", "swept": true, "frdens": 8.51, "pdens": 14.57, "n_live_core": 30, "n_live_plot": 37, "n_stems_total": 41 }, "geometry": { "type": "Polygon", "coordinates": [ [ [ -119.009709, 37.013709 ], [ -119.0094843, 37.0137128 ], [ -119.0094891, 37.013893 ], [ -119.0097138, 37.0138892 ], [ -119.009709, 37.013709 ] ] ] } },
{ "type": "Feature", "properties": { "plotID": "TEAK_013", "site": "TEAK", "plotType": "distributed", "swept": true, "frdens": 9.3, "pdens": 15.46, "n_live_core": 12, "n_live_plot": 13, "n_stems_total": 18 }, "geometry": { "type": "Polygon", "coordinates": [ [ [ -119.0417809, 36.974729 ], [ -119.0415563, 36.9747328 ], [ -119.0415611, 36.974913 ], [ -119.0417857, 36.9749092 ], [ -119.0417809, 36.974729 ] ] ] } },
{ "type": "Feature", "properties": { "plotID": "TEAK_014", "site": "TEAK", "plotType": "distributed", "swept": true, "frdens": 11.62, "pdens": 17.58, "n_live_core": 4, "n_live_plot": 7, "n_stems_total": 11 }, "geometry": { "type": "Polygon", "coordinates": [ [ [ -119.0426679, 37.022287 ], [ -119.0424432, 37.0222909 ], [ -119.0424481, 37.022471 ], [ -119.0426728, 37.0224672 ], [ -119.0426679, 37.022287 ] ] ] } },
{ "type": "Feature", "properties": { "plotID": "TEAK_015", "site": "TEAK", "plotType": "distributed", "swept": true, "frdens": 7.65, "pdens": 14.38, "n_live_core": 22, "n_live_plot": 24, "n_stems_total": 31 }, "geometry": { "type": "Polygon", "coordinates": [ [ [ -119.0444669, 36.988216 ], [ -119.0442423, 36.9882199 ], [ -119.0442471, 36.9884 ], [ -119.0444717, 36.9883962 ], [ -119.0444669, 36.988216 ] ] ] } },
{ "type": "Feature", "properties": { "plotID": "TEAK_016", "site": "TEAK", "plotType": "distributed", "swept": false, "frdens": null, "pdens": null, "n_live_core": 3, "n_live_plot": 4, "n_stems_total": 6 }, "geometry": { "type": "Polygon", "coordinates": [ [ [ -119.0065169, 37.030224 ], [ -119.0062922, 37.0302278 ], [ -119.0062969, 37.0304079 ], [ -119.0065217, 37.0304041 ], [ -119.0065169, 37.030224 ] ] ] } },
{ "type": "Feature", "properties": { "plotID": "TEAK_017", "site": "TEAK", "plotType": "distributed", "swept": true, "frdens": 17.76, "pdens": 25.35, "n_live_core": 12, "n_live_plot": 12, "n_stems_total": 12 }, "geometry": { "type": "Polygon", "coordinates": [ [ [ -119.0553929, 36.993977 ], [ -119.0551682, 36.9939809 ], [ -119.0551731, 36.994161 ], [ -119.0553977, 36.9941571 ], [ -119.0553929, 36.993977 ] ] ] } },
{ "type": "Feature", "properties": { "plotID": "TEAK_018", "site": "TEAK", "plotType": "distributed", "swept": false, "frdens": null, "pdens": null, "n_live_core": 4, "n_live_plot": 4, "n_stems_total": 4 }, "geometry": { "type": "Polygon", "coordinates": [ [ [ -119.0290519, 36.978515 ], [ -119.0288273, 36.9785188 ], [ -119.0288321, 36.978699 ], [ -119.0290567, 36.9786951 ], [ -119.0290519, 36.978515 ] ] ] } },
{ "type": "Feature", "properties": { "plotID": "TEAK_019", "site": "TEAK", "plotType": "distributed", "swept": true, "frdens": 13.01, "pdens": 23.81, "n_live_core": 16, "n_live_plot": 20, "n_stems_total": 25 }, "geometry": { "type": "Polygon", "coordinates": [ [ [ -119.0093229, 36.973678 ], [ -119.0090983, 36.9736818 ], [ -119.0091031, 36.973862 ], [ -119.0093276, 36.9738582 ], [ -119.0093229, 36.973678 ] ] ] } },
{ "type": "Feature", "properties": { "plotID": "TEAK_020", "site": "TEAK", "plotType": "distributed", "swept": true, "frdens": 11.12, "pdens": 21.32, "n_live_core": 11, "n_live_plot": 12, "n_stems_total": 12 }, "geometry": { "type": "Polygon", "coordinates": [ [ [ -119.008734, 37.025587 ], [ -119.0085093, 37.0255908 ], [ -119.0085141, 37.025771 ], [ -119.0087388, 37.0257672 ], [ -119.008734, 37.025587 ] ] ] } },
{ "type": "Feature", "properties": { "plotID": "TEAK_024", "site": "TEAK", "plotType": "distributed", "swept": false, "frdens": null, "pdens": null, "n_live_core": 0, "n_live_plot": 0, "n_stems_total": 0 }, "geometry": { "type": "Polygon", "coordinates": [ [ [ -119.0337889, 36.992975 ], [ -119.0335643, 36.9929788 ], [ -119.0335691, 36.993159 ], [ -119.0337937, 36.9931551 ], [ -119.0337889, 36.992975 ] ] ] } },
{ "type": "Feature", "properties": { "plotID": "TEAK_025", "site": "TEAK", "plotType": "distributed", "swept": false, "frdens": null, "pdens": null, "n_live_core": 3, "n_live_plot": 3, "n_stems_total": 3 }, "geometry": { "type": "Polygon", "coordinates": [ [ [ -119.0246239, 36.989905 ], [ -119.0243993, 36.9899088 ], [ -119.0244041, 36.990089 ], [ -119.0246287, 36.9900852 ], [ -119.0246239, 36.989905 ] ] ] } },
{ "type": "Feature", "properties": { "plotID": "TEAK_043", "site": "TEAK", "plotType": "tower", "swept": true, "frdens": 14.71, "pdens": 21.44, "n_live_core": 22, "n_live_plot": 24, "n_stems_total": 34 }, "geometry": { "type": "Polygon", "coordinates": [ [ [ -119.0112568, 36.999514 ], [ -119.0108076, 36.9995216 ], [ -119.0108171, 36.999882 ], [ -119.0112663, 36.9998744 ], [ -119.0112568, 36.999514 ] ] ] } },
{ "type": "Feature", "properties": { "plotID": "TEAK_044", "site": "TEAK", "plotType": "tower", "swept": true, "frdens": 11.13, "pdens": 19.96, "n_live_core": 77, "n_live_plot": 82, "n_stems_total": 101 }, "geometry": { "type": "Polygon", "coordinates": [ [ [ -119.0102649, 37.003037 ], [ -119.0098156, 37.0030446 ], [ -119.0098251, 37.003405 ], [ -119.0102744, 37.0033974 ], [ -119.0102649, 37.003037 ] ] ] } },
{ "type": "Feature", "properties": { "plotID": "TEAK_045", "site": "TEAK", "plotType": "tower", "swept": true, "frdens": 13.08, "pdens": 24.14, "n_live_core": 30, "n_live_plot": 31, "n_stems_total": 55 }, "geometry": { "type": "Polygon", "coordinates": [ [ [ -119.0040399, 36.9977331 ], [ -119.0035906, 36.9977406 ], [ -119.0036001, 36.998101 ], [ -119.0040493, 36.9980934 ], [ -119.0040399, 36.9977331 ] ] ] } },
{ "type": "Feature", "properties": { "plotID": "TEAK_046", "site": "TEAK", "plotType": "tower", "swept": true, "frdens": 13.74, "pdens": 23.75, "n_live_core": 43, "n_live_plot": 51, "n_stems_total": 71 }, "geometry": { "type": "Polygon", "coordinates": [ [ [ -119.0079759, 37.006607 ], [ -119.0075266, 37.0066146 ], [ -119.0075361, 37.006975 ], [ -119.0079854, 37.0069674 ], [ -119.0079759, 37.006607 ] ] ] } },
{ "type": "Feature", "properties": { "plotID": "TEAK_047", "site": "TEAK", "plotType": "tower", "swept": true, "frdens": 10.22, "pdens": 16.83, "n_live_core": 34, "n_live_plot": 34, "n_stems_total": 40 }, "geometry": { "type": "Polygon", "coordinates": [ [ [ -119.0092889, 37.004965 ], [ -119.0088396, 37.0049726 ], [ -119.0088491, 37.005333 ], [ -119.0092984, 37.0053254 ], [ -119.0092889, 37.004965 ] ] ] } },
{ "type": "Feature", "properties": { "plotID": "TEAK_048", "site": "TEAK", "plotType": "tower", "swept": false, "frdens": null, "pdens": null, "n_live_core": 1, "n_live_plot": 1, "n_stems_total": 22 }, "geometry": { "type": "Polygon", "coordinates": [ [ [ -119.0027619, 37.000186 ], [ -119.0023126, 37.0001936 ], [ -119.0023221, 37.000554 ], [ -119.0027714, 37.0005464 ], [ -119.0027619, 37.000186 ] ] ] } },
{ "type": "Feature", "properties": { "plotID": "TEAK_049", "site": "TEAK", "plotType": "tower", "swept": false, "frdens": null, "pdens": null, "n_live_core": 0, "n_live_plot": 0, "n_stems_total": 22 }, "geometry": { "type": "Polygon", "coordinates": [ [ [ -119.0068109, 36.9998581 ], [ -119.0063616, 36.9998657 ], [ -119.0063711, 37.000226 ], [ -119.0068204, 37.0002184 ], [ -119.0068109, 36.9998581 ] ] ] } },
{ "type": "Feature", "properties": { "plotID": "TEAK_050", "site": "TEAK", "plotType": "tower", "swept": true, "frdens": 7.21, "pdens": 12.91, "n_live_core": 9, "n_live_plot": 9, "n_stems_total": 113 }, "geometry": { "type": "Polygon", "coordinates": [ [ [ -119.0163509, 37.004011 ], [ -119.0159016, 37.0040187 ], [ -119.0159111, 37.004379 ], [ -119.0163605, 37.0043714 ], [ -119.0163509, 37.004011 ] ] ] } },
{ "type": "Feature", "properties": { "plotID": "TEAK_051", "site": "TEAK", "plotType": "tower", "swept": false, "frdens": null, "pdens": null, "n_live_core": 3, "n_live_plot": 3, "n_stems_total": 63 }, "geometry": { "type": "Polygon", "coordinates": [ [ [ -119.007553, 37.002801 ], [ -119.0071037, 37.0028086 ], [ -119.0071131, 37.003169 ], [ -119.0075624, 37.0031614 ], [ -119.007553, 37.002801 ] ] ] } },
{ "type": "Feature", "properties": { "plotID": "TEAK_052", "site": "TEAK", "plotType": "tower", "swept": true, "frdens": 14.2, "pdens": 23.34, "n_live_core": 12, "n_live_plot": 12, "n_stems_total": 83 }, "geometry": { "type": "Polygon", "coordinates": [ [ [ -119.009727, 37.008754 ], [ -119.0092776, 37.0087616 ], [ -119.0092871, 37.0091219 ], [ -119.0097364, 37.0091143 ], [ -119.009727, 37.008754 ] ] ] } },
{ "type": "Feature", "properties": { "plotID": "TEAK_053", "site": "TEAK", "plotType": "tower", "swept": false, "frdens": null, "pdens": null, "n_live_core": 2, "n_live_plot": 2, "n_stems_total": 27 }, "geometry": { "type": "Polygon", "coordinates": [ [ [ -119.0109659, 37.004667 ], [ -119.0105166, 37.0046746 ], [ -119.0105261, 37.005035 ], [ -119.0109754, 37.0050274 ], [ -119.0109659, 37.004667 ] ] ] } },
{ "type": "Feature", "properties": { "plotID": "TEAK_054", "site": "TEAK", "plotType": "tower", "swept": false, "frdens": null, "pdens": null, "n_live_core": 3, "n_live_plot": 4, "n_stems_total": 41 }, "geometry": { "type": "Polygon", "coordinates": [ [ [ -119.0017339, 36.9991261 ], [ -119.0012846, 36.9991337 ], [ -119.0012941, 36.999494 ], [ -119.0017433, 36.9994864 ], [ -119.0017339, 36.9991261 ] ] ] } },
{ "type": "Feature", "properties": { "plotID": "TEAK_055", "site": "TEAK", "plotType": "tower", "swept": false, "frdens": null, "pdens": null, "n_live_core": 3, "n_live_plot": 3, "n_stems_total": 15 }, "geometry": { "type": "Polygon", "coordinates": [ [ [ -119.0057649, 36.999036 ], [ -119.0053156, 36.9990436 ], [ -119.0053251, 36.999404 ], [ -119.0057744, 36.9993964 ], [ -119.0057649, 36.999036 ] ] ] } },
{ "type": "Feature", "properties": { "plotID": "TEAK_056", "site": "TEAK", "plotType": "tower", "swept": false, "frdens": null, "pdens": null, "n_live_core": 2, "n_live_plot": 2, "n_stems_total": 20 }, "geometry": { "type": "Polygon", "coordinates": [ [ [ -119.0108949, 37.001917 ], [ -119.0104457, 37.0019246 ], [ -119.0104551, 37.002285 ], [ -119.0109044, 37.0022774 ], [ -119.0108949, 37.001917 ] ] ] } },
{ "type": "Feature", "properties": { "plotID": "TEAK_057", "site": "TEAK", "plotType": "tower", "swept": false, "frdens": null, "pdens": null, "n_live_core": 3, "n_live_plot": 3, "n_stems_total": 65 }, "geometry": { "type": "Polygon", "coordinates": [ [ [ -119.0082669, 37.003905 ], [ -119.0078176, 37.0039126 ], [ -119.0078271, 37.004273 ], [ -119.0082764, 37.0042653 ], [ -119.0082669, 37.003905 ] ] ] } },
{ "type": "Feature", "properties": { "plotID": "TEAK_058", "site": "TEAK", "plotType": "tower", "swept": false, "frdens": null, "pdens": null, "n_live_core": 1, "n_live_plot": 2, "n_stems_total": 16 }, "geometry": { "type": "Polygon", "coordinates": [ [ [ -119.0078259, 36.997912 ], [ -119.0073766, 36.9979196 ], [ -119.0073861, 36.99828 ], [ -119.0078353, 36.9982724 ], [ -119.0078259, 36.997912 ] ] ] } },
{ "type": "Feature", "properties": { "plotID": "TEAK_059", "site": "TEAK", "plotType": "tower", "swept": false, "frdens": null, "pdens": null, "n_live_core": 2, "n_live_plot": 2, "n_stems_total": 75 }, "geometry": { "type": "Polygon", "coordinates": [ [ [ -119.004479, 37.00127 ], [ -119.0040297, 37.0012776 ], [ -119.0040391, 37.001638 ], [ -119.0044884, 37.0016304 ], [ -119.004479, 37.00127 ] ] ] } },
{ "type": "Feature", "properties": { "plotID": "TEAK_060", "site": "TEAK", "plotType": "tower", "swept": false, "frdens": null, "pdens": null, "n_live_core": 2, "n_live_plot": 2, "n_stems_total": 48 }, "geometry": { "type": "Polygon", "coordinates": [ [ [ -119.0058159, 37.000664 ], [ -119.0053666, 37.0006716 ], [ -119.0053761, 37.001032 ], [ -119.0058254, 37.0010244 ], [ -119.0058159, 37.000664 ] ] ] } },
{ "type": "Feature", "properties": { "plotID": "TEAK_061", "site": "TEAK", "plotType": "tower", "swept": false, "frdens": null, "pdens": null, "n_live_core": 1, "n_live_plot": 1, "n_stems_total": 38 }, "geometry": { "type": "Polygon", "coordinates": [ [ [ -119.001793, 37.001293 ], [ -119.0013437, 37.0013006 ], [ -119.0013531, 37.001661 ], [ -119.0018024, 37.0016534 ], [ -119.001793, 37.001293 ] ] ] } },
{ "type": "Feature", "properties": { "plotID": "TEAK_062", "site": "TEAK", "plotType": "tower", "swept": false, "frdens": null, "pdens": null, "n_live_core": 0, "n_live_plot": 1, "n_stems_total": 74 }, "geometry": { "type": "Polygon", "coordinates": [ [ [ -119.0091839, 37.000075 ], [ -119.0087346, 37.0000826 ], [ -119.0087441, 37.000443 ], [ -119.0091934, 37.0004354 ], [ -119.0091839, 37.000075 ] ] ] } }
]
}
